IRIDIUM 57 [-]          
1 25273U 98019B   23361.57904646  .00000601  00000+0  20402-3 0  9999
2 25273  86.3960  10.3944 0002226  90.7826 269.3625 14.35028555347665
IRIDIUM 63 [-]          
1 25286U 98021B   23361.87553691  .00000743  00000+0  25163-3 0  9995
2 25286  86.3984 307.2047 0002144  92.3868 267.7574 14.35543995346732
IRIDIUM 69 [-]          
1 25319U 98026A   23361.89075056  .00000716  00000+0  22251-3 0  9998
2 25319  86.3986 322.0916 0003081  41.4098 318.7334 14.39723174345724
IRIDIUM 71 [-]          
1 25320U 98026B   23361.92926830  .00000842  00000+0  26103-3 0  9999
2 25320  86.3978 316.8813 0004261  74.4829 285.6841 14.40051235346240
IRIDIUM 73 [-]          
1 25344U 98032C   23361.82211794  .00001069  00000+0  26991-3 0  9994
2 25344  86.4419 274.6121 0002451  69.8611 290.2857 14.50213716352641
IRIDIUM 82 [-]          
1 25467U 98051A   23361.49600346  .00011228  00000+0  62887-3 0  9991
2 25467  86.3927   7.1796 0143263 131.2722 230.0957 15.04830977342478
IRIDIUM 2 [-]           
1 25527U 98066A   23361.87142897  .00045866  00000+0  83822-3 0  9995
2 25527  85.5161  52.8691 0001854 244.4906 115.6160 15.49199632380995
